start=new Date('2022-07-24T00:00:00.000Z').valueOf();
sats=[{"COUNTRY_CODE":"US","GP_ID":"208737157","SEMIMAJOR_AXIS":"6925.338","OBJECT_ID":"2021-038K","INCLINATION":"53.0530","ARG_OF_PERICENTER":"62.6685","RCS_SIZE":"LARGE","NORAD_CAT_ID":"48362","OBJECT_NAME":"STARLINK-2578","DECAY_DATE":null,"CLASSIFICATION_TYPE":"U","ELEMENT_SET_NO":"999","OBJECT_TYPE":"PAYLOAD","LAUNCH_DATE":"2021-05-04","MEAN_MOTION":"15.06403540","BSTAR":"0.00002094000000","TIME_SYSTEM":"UTC","EPOCH":"2022-07-23T15:47:45.054240","SITE":"AFETR","REV_AT_EPOCH":"6731","FILE":"3520602","APOAPSIS":"548.608","REF_FRAME":"TEME","EPHEMERIS_TYPE":"0","MEAN_MOTION_DDOT":"0.0000000000000","PERIAPSIS":"545.798","CENTER_NAME":"EARTH","MEAN_ANOMALY":"297.4510","RA_OF_ASC_NODE":"190.0016","TLE_LINE1":"1 48362U 21038K   22204.65816035  .00000030  00000-0  20940-4 0  9993","TLE_LINE2":"2 48362  53.0530 190.0016 0002029  62.6685 297.4510 15.06403540 67317","MEAN_ELEMENT_THEORY":"SGP4","PERIOD":"95.592","ECCENTRICITY":"0.00020290","MEAN_MOTION_DOT":"0.00000030"},{"MEAN_MOTION_DDOT":"0.0000000000000","PERIAPSIS":"546.182","CENTER_NAME":"EARTH","EPHEMERIS_TYPE":"0","TLE_LINE2":"2 48363  53.0546 184.8786 0001513  75.3616 284.7540 15.06394743 67385","PERIOD":"95.592","MEAN_ELEMENT_THEORY":"SGP4","MEAN_ANOMALY":"284.7540","RA_OF_ASC_NODE":"184.8786","TLE_LINE1":"1 48363U 21038L   22204.66782473 -.00000140  00000-0  94911-5 0  9996","ECCENTRICITY":"0.00015130","MEAN_MOTION_DOT":"-0.00000140","TIME_SYSTEM":"UTC","BSTAR":"0.00000949110000","MEAN_MOTION":"15.06394743","REV_AT_EPOCH":"6738","SITE":"AFETR","EPOCH":"2022-07-23T16:01:40.056672","REF_FRAME":"TEME","FILE":"3520602","APOAPSIS":"548.277","DECAY_DATE":null,"OBJECT_NAME":"STARLINK-2626","CLASSIFICATION_TYPE":"U","LAUNCH_DATE":"2021-05-04","ELEMENT_SET_NO":"999","OBJECT_TYPE":"PAYLOAD","SEMIMAJOR_AXIS":"6925.365","COUNTRY_CODE":"US","GP_ID":"208735406","OBJECT_ID":"2021-038L","INCLINATION":"53.0546","ARG_OF_PERICENTER":"75.3616","NORAD_CAT_ID":"48363","RCS_SIZE":"LARGE"},{"GP_ID":"208735656","COUNTRY_CODE":"US","SEMIMAJOR_AXIS":"6925.371","INCLINATION":"53.0539","OBJECT_ID":"2021-038M","RCS_SIZE":"LARGE","NORAD_CAT_ID":"48364","ARG_OF_PERICENTER":"69.7836","OBJECT_NAME":"STARLINK-2611","DECAY_DATE":null,"CLASSIFICATION_TYPE":"U","OBJECT_TYPE":"PAYLOAD","ELEMENT_SET_NO":"999","LAUNCH_DATE":"2021-05-04","MEAN_MOTION":"15.06392728","TIME_SYSTEM":"UTC","BSTAR":"0.00013269000000","EPOCH":"2022-07-23T16:22:56.451648","REV_AT_EPOCH":"6738","SITE":"AFETR","APOAPSIS":"548.354","FILE":"3520602","REF_FRAME":"TEME","EPHEMERIS_TYPE":"0","CENTER_NAME":"EARTH","PERIAPSIS":"546.118","MEAN_MOTION_DDOT":"0.0000000000000","RA_OF_ASC_NODE":"185.0105","TLE_LINE1":"1 48364U 21038M   22204.68259782  .00001695  00000-0  13269-3 0  9991","MEAN_ANOMALY":"290.3326","MEAN_ELEMENT_THEORY":"SGP4","PERIOD":"95.593","TLE_LINE2":"2 48364  53.0539 185.0105 0001614  69.7836 290.3326 15.06392728 67385","MEAN_MOTION_DOT":"0.00001695","ECCENTRICITY":"0.00016140"},{"OBJECT_NAME":"STARLINK-2608","DECAY_DATE":null,"CLASSIFICATION_TYPE":"U","OBJECT_TYPE":"PAYLOAD","ELEMENT_SET_NO":"999","LAUNCH_DATE":"2021-05-04","GP_ID":"208736907","COUNTRY_CODE":"US","SEMIMAJOR_AXIS":"6925.390","INCLINATION":"53.0529","OBJECT_ID":"2021-038N","RCS_SIZE":"LARGE","NORAD_CAT_ID":"48365","ARG_OF_PERICENTER":"76.1932","EPHEMERIS_TYPE":"0","CENTER_NAME":"EARTH","PERIAPSIS":"546.212","MEAN_MOTION_DDOT":"0.0000000000000","TLE_LINE1":"1 48365U 21038N   22204.64203878 -.00000953  00000-0 -45133-4 0  9997","RA_OF_ASC_NODE":"184.9969","MEAN_ANOMALY":"283.9224","MEAN_ELEMENT_THEORY":"SGP4","PERIOD":"95.593","TLE_LINE2":"2 48365  53.0529 184.9969 0001506  76.1932 283.9224 15.06386492 67386","MEAN_MOTION_DOT":"-0.00000953","ECCENTRICITY":"0.00015060","MEAN_MOTION":"15.06386492","TIME_SYSTEM":"UTC","BSTAR":"-0.00004513300000","EPOCH":"2022-07-23T15:24:32.150592","REV_AT_EPOCH":"6738","SITE":"AFETR","APOAPSIS":"548.298","FILE":"3520602","REF_FRAME":"TEME"},{"SEMIMAJOR_AXIS":"6925.363","GP_ID":"208736658","COUNTRY_CODE":"US","RCS_SIZE":"LARGE","NORAD_CAT_ID":"48366","ARG_OF_PERICENTER":"77.5102","INCLINATION":"53.0555","OBJECT_ID":"2021-038P","CLASSIFICATION_TYPE":"U","DECAY_DATE":null,"OBJECT_NAME":"STARLINK-2631","LAUNCH_DATE":"2021-05-04","OBJECT_TYPE":"PAYLOAD","ELEMENT_SET_NO":"999","REV_AT_EPOCH":"6744","SITE":"AFETR","EPOCH":"2022-07-23T15:06:35.990208","TIME_SYSTEM":"UTC","BSTAR":"0.00016684000000","MEAN_MOTION":"15.06395307","REF_FRAME":"TEME","APOAPSIS":"548.239","FILE":"3520602","PERIOD":"95.592","MEAN_ELEMENT_THEORY":"SGP4","TLE_LINE2":"2 48366  53.0555 180.0572 0001460  77.5102 282.6050 15.06395307 67441","TLE_LINE1":"1 48366U 21038P   22204.62958322  .00002204  00000-0  16684-3 0  9994","RA_OF_ASC_NODE":"180.0572","MEAN_ANOMALY":"282.6050","CENTER_NAME":"EARTH","PERIAPSIS":"546.217","MEAN_MOTION_DDOT":"0.0000000000000","EPHEMERIS_TYPE":"0","MEAN_MOTION_DOT":"0.00002204","ECCENTRICITY":"0.00014600"},{"APOAPSIS":"548.464","FILE":"3520602","REF_FRAME":"TEME","MEAN_MOTION":"15.06401187","BSTAR":"0.00013514000000","TIME_SYSTEM":"UTC","EPOCH":"2022-07-23T15:01:17.353920","REV_AT_EPOCH":"6744","SITE":"AFETR","ECCENTRICITY":"0.00018110","MEAN_MOTION_DOT":"0.00001732","EPHEMERIS_TYPE":"0","MEAN_MOTION_DDOT":"0.0000000000000","PERIAPSIS":"545.956","CENTER_NAME":"EARTH","MEAN_ANOMALY":"290.0525","TLE_LINE1":"1 48367U 21038Q   22204.62589530  .00001732  00000-0  13514-3 0  9990","RA_OF_ASC_NODE":"180.0722","TLE_LINE2":"2 48367  53.0522 180.0722 0001811  70.0659 290.0525 15.06401187 67442","PERIOD":"95.592","MEAN_ELEMENT_THEORY":"SGP4","OBJECT_ID":"2021-038Q","INCLINATION":"53.0522","ARG_OF_PERICENTER":"70.0659","NORAD_CAT_ID":"48367","RCS_SIZE":"LARGE","COUNTRY_CODE":"US","GP_ID":"208735906","SEMIMAJOR_AXIS":"6925.345","ELEMENT_SET_NO":"999","OBJECT_TYPE":"PAYLOAD","LAUNCH_DATE":"2021-05-04","OBJECT_NAME":"STARLINK-2643","DECAY_DATE":null,"CLASSIFICATION_TYPE":"U"},{"OBJECT_NAME":"STARLINK-2623","DECAY_DATE":null,"CLASSIFICATION_TYPE":"U","ELEMENT_SET_NO":"999","OBJECT_TYPE":"PAYLOAD","LAUNCH_DATE":"2021-05-04","COUNTRY_CODE":"US","GP_ID":"208736156","SEMIMAJOR_AXIS":"6925.305","OBJECT_ID":"2021-038R","INCLINATION":"53.0541","ARG_OF_PERICENTER":"61.9756","NORAD_CAT_ID":"48368","RCS_SIZE":"LARGE","EPHEMERIS_TYPE":"0","PERIAPSIS":"545.726","MEAN_MOTION_DDOT":"0.0000000000000","CENTER_NAME":"EARTH","MEAN_ANOMALY":"298.1444","RA_OF_ASC_NODE":"180.1453","TLE_LINE1":"1 48368U 21038R   22204.67015954  .00002462  00000-0  18405-3 0  9995","TLE_LINE2":"2 48368  53.0541 180.1453 0002084  61.9756 298.1444 15.06414349 67450","MEAN_ELEMENT_THEORY":"SGP4","PERIOD":"95.591","ECCENTRICITY":"0.00020840","MEAN_MOTION_DOT":"0.00002462","MEAN_MOTION":"15.06414349","BSTAR":"0.00018405000000","TIME_SYSTEM":"UTC","EPOCH":"2022-07-23T16:05:01.784256","SITE":"AFETR","REV_AT_EPOCH":"6745","APOAPSIS":"548.613","FILE":"3520602","REF_FRAME":"TEME"},{"PERIAPSIS":"546.032","MEAN_MOTION_DDOT":"0.0000000000000","CENTER_NAME":"EARTH","EPHEMERIS_TYPE":"0","TLE_LINE2":"2 48369  53.0522 180.0850 0001686  57.8239 302.2914 15.06404497 67448","PERIOD":"95.592","MEAN_ELEMENT_THEORY":"SGP4","MEAN_ANOMALY":"302.2914","TLE_LINE1":"1 48369U 21038S   22204.62220905  .00003415  00000-0  24802-3 0  9992","RA_OF_ASC_NODE":"180.0850","ECCENTRICITY":"0.00016860","MEAN_MOTION_DOT":"0.00003415","TIME_SYSTEM":"UTC","BSTAR":"0.00024802000000","MEAN_MOTION":"15.06404497","REV_AT_EPOCH":"6744","SITE":"AFETR","EPOCH":"2022-07-23T14:55:58.861920","REF_FRAME":"TEME","FILE":"3520602","APOAPSIS":"548.367","DECAY_DATE":null,"OBJECT_NAME":"STARLINK-2641","CLASSIFICATION_TYPE":"U","LAUNCH_DATE":"2021-05-04","ELEMENT_SET_NO":"999","OBJECT_TYPE":"PAYLOAD","SEMIMAJOR_AXIS":"6925.335","COUNTRY_CODE":"US","GP_ID":"208736408","OBJECT_ID":"2021-038S","INCLINATION":"53.0522","ARG_OF_PERICENTER":"57.8239","RCS_SIZE":"LARGE","NORAD_CAT_ID":"48369"},{"MEAN_MOTION_DOT":"0.00000847","ECCENTRICITY":"0.00016760","MEAN_ELEMENT_THEORY":"SGP4","PERIOD":"95.592","TLE_LINE2":"2 48370  53.0537 181.2925 0001676  56.6320 303.4829 15.06397577 67403","RA_OF_ASC_NODE":"181.2925","TLE_LINE1":"1 48370U 21038T   22204.35313731  .00000847  00000-0  75774-4 0  9995","MEAN_ANOMALY":"303.4829","CENTER_NAME":"EARTH","MEAN_MOTION_DDOT":"0.0000000000000","PERIAPSIS":"546.060","EPHEMERIS_TYPE":"0","REF_FRAME":"TEME","FILE":"3520423","APOAPSIS":"548.382","REV_AT_EPOCH":"6740","SITE":"AFETR","EPOCH":"2022-07-23T08:28:31.063584","BSTAR":"0.00007577400000","TIME_SYSTEM":"UTC","MEAN_MOTION":"15.06397577","LAUNCH_DATE":"2021-05-04","OBJECT_TYPE":"PAYLOAD","ELEMENT_SET_NO":"999","CLASSIFICATION_TYPE":"U","DECAY_DATE":null,"OBJECT_NAME":"STARLINK-2621","NORAD_CAT_ID":"48370","RCS_SIZE":"LARGE","ARG_OF_PERICENTER":"56.6320","INCLINATION":"53.0537","OBJECT_ID":"2021-038T","SEMIMAJOR_AXIS":"6925.356","GP_ID":"208707102","COUNTRY_CODE":"US"},{"COUNTRY_CODE":"US","GP_ID":"208707848","SEMIMAJOR_AXIS":"6925.363","ARG_OF_PERICENTER":"63.4410","NORAD_CAT_ID":"48371","RCS_SIZE":"LARGE","OBJECT_ID":"2021-038U","INCLINATION":"53.0546","CLASSIFICATION_TYPE":"U","OBJECT_NAME":"STARLINK-2589","DECAY_DATE":null,"ELEMENT_SET_NO":"999","OBJECT_TYPE":"PAYLOAD","LAUNCH_DATE":"2021-05-04","EPOCH":"2022-07-23T08:23:12.512832","REV_AT_EPOCH":"6740","SITE":"AFETR","MEAN_MOTION":"15.06395386","BSTAR":"0.00000978770000","TIME_SYSTEM":"UTC","FILE":"3520423","APOAPSIS":"548.298","REF_FRAME":"TEME","MEAN_ANOMALY":"296.6737","RA_OF_ASC_NODE":"181.3167","TLE_LINE1":"1 48371U 21038U   22204.34945038 -.00000136  00000-0  97877-5 0  9997","TLE_LINE2":"2 48371  53.0546 181.3167 0001545  63.4410 296.6737 15.06395386 67401","PERIOD":"95.592","MEAN_ELEMENT_THEORY":"SGP4","EPHEMERIS_TYPE":"0","PERIAPSIS":"546.158","MEAN_MOTION_DDOT":"0.0000000000000","CENTER_NAME":"EARTH","ECCENTRICITY":"0.00015450","MEAN_MOTION_DOT":"-0.00000136"}];
